{
    "links": {
        "self": "http://www.neowsapp.com/rest/v1/neo/3561027?api_key=iIulBulltgU6a56xZRHN4H3l9WmuAYTsLGpBGhQ2"
    },
    "id": "3561027",
    "neo_reference_id": "3561027",
    "name": "(2011 GC3)",
    "designation": "2011 GC3",
    "nasa_jpl_url": "http://ssd.jpl.nasa.gov/sbdb.cgi?sstr=3561027",
    "absolute_magnitude_h": 22.6,
    "estimated_diameter": {
        "kilometers": {
            "estimated_diameter_min": 0.0802703167,
            "estimated_diameter_max": 0.1794898848
        },
        "meters": {
            "estimated_diameter_min": 80.2703167283,
            "estimated_diameter_max": 179.4898847799
        },
        "miles": {
            "estimated_diameter_min": 0.049877647,
            "estimated_diameter_max": 0.1115298092
        },
        "feet": {
            "estimated_diameter_min": 263.3540659348,
            "estimated_diameter_max": 588.8775935812
        }
    },
    "is_potentially_hazardous_asteroid": false,
    "close_approach_data": [
        {
            "close_approach_date": "2011-03-12",
            "close_approach_date_full": "2011-Mar-12 20:43",
            "epoch_date_close_approach": 1299962580000,
            "relative_velocity": {
                "kilometers_per_second": "15.3312345781",
                "kilometers_per_hour": "55192.4444810192",
                "miles_per_hour": "34294.4386276644"
            },
            "miss_distance": {
                "astronomical": "0.0796795534",
                "lunar": "30.9953462726",
                "kilometers": "11919891.471191258",
                "miles": "7406677.1080170404"
            },
            "orbiting_body": "Earth"
        },
        {
            "close_approach_date": "2013-03-14",
            "close_approach_date_full": "2013-Mar-14 15:47",
            "epoch_date_close_approach": 1363276020000,
            "relative_velocity": {
                "kilometers_per_second": "16.5431967315",
                "kilometers_per_hour": "59555.5082334072",
                "miles_per_hour": "37005.4767686968"
            },
            "miss_distance": {
                "astronomical": "0.0138044385",
                "lunar": "5.3699265765",
                "kilometers": "2065114.596145995",
                "miles": "1283202.707144931"
            },
            "orbiting_body": "Mars"
        }
    ],
    "orbital_data": {
        "orbit_id": "7",
        "orbit_determination_date": "2017-04-06 08:53:53",
        "first_observation_date": "2011-04-02",
        "last_observation_date": "2011-04-12",
        "data_arc_in_days": 10,
        "observations_used": 19,
        "orbit_uncertainty": "8",
        "minimum_orbit_intersection": ".0612599",
        "jupiter_tisserand_invariant": "3.885",
        "epoch_osculation": "2455654.5",
        "eccentricity": ".5295481321069072",
        "semi_major_axis": "1.783688055883747",
        "inclination": "12.98284227623987",
        "ascending_node_longitude": "181.6218121429287",
        "orbital_period": "870.1152555278441",
        "perihelion_distance": ".8391393776291082",
        "perihelion_argument": "285.1188184604285",
        "aphelion_distance": "2.728236734138387",
        "perihelion_time": "2455588.456184348896",
        "mean_anomaly": "27.32485551006019",
        "mean_motion": ".4137382923847378",
        "equinox": "J2000",
        "orbit_class": {
            "orbit_class_type": "APO",
            "orbit_class_description": "Near-Earth asteroid orbits which cross the Earth’s orbit similar to that of 1862 Apollo",
            "orbit_class_range": "a (semi-major axis) > 1.0 AU; q (perihelion) < 1.017 AU"
        }
    },
    "is_sentry_object": false
}